{
  "type": "FeatureCollection",
  "features": [
    {
      "type": "Feature",
      "properties": {
        "norad_id": 27954,
        "name": "GALAXY 13 (HORIZONS-1)",
        "group": "intelsat",
        "lat": -0.9626897720547066,
        "lon": 5.579676453827517,
        "alt_km": 35786.23446985054,
        "timestamp": "2025-12-27T03:58:43.845283+00:00",
        "meta_object_name": "GALAXY 13 (HORIZONS-1)",
        "meta_object_id": "2003-044A",
        "meta_epoch": "2025-12-26T11:53:43.073088",
        "meta_mean_motion": 1.00272501,
        "meta_eccentricity": 0.0002299,
        "meta_inclination": 0.9724,
        "meta_ra_of_asc_node": 86.2926,
        "meta_arg_of_pericenter": 187.4398,
        "meta_mean_anomaly": 209.9098,
        "meta_ephemeris_type": 0,
        "meta_classification_type": "U",
        "meta_norad_cat_id": 27954,
        "meta_element_set_no": 999,
        "meta_rev_at_epoch": 4484,
        "meta_bstar": 0,
        "meta_mean_motion_dot": 1.54e-06,
        "meta_mean_motion_ddot": 0,
        "tle_line1": "1 27954U 03044A   25360.49563742  .00000154  00000+0  00000+0 0  9992",
        "tle_line2": "2 27954   0.9724  86.2926 0002299 187.4398 209.9098  1.00272501 44841"
      },
      "geometry": {
        "type": "Point",
        "coordinates": [
          5.579676453827517,
          -0.9626897720547066
        ]
      }
    },
    {
      "type": "Feature",
      "properties": {
        "norad_id": 28358,
        "name": "INTELSAT 10-02",
        "group": "intelsat",
        "lat": 0.028676708897183833,
        "lon": 154.61040831851577,
        "alt_km": 35790.723775734295,
        "timestamp": "2025-12-27T03:58:43.845295+00:00",
        "meta_object_name": "INTELSAT 10-02",
        "meta_object_id": "2004-022A",
        "meta_epoch": "2025-12-26T08:51:38.739168",
        "meta_mean_motion": 1.0027058,
        "meta_eccentricity": 0.0001247,
        "meta_inclination": 0.0178,
        "meta_ra_of_asc_node": 41.2908,
        "meta_arg_of_pericenter": 258.9062,
        "meta_mean_anomaly": 286.8755,
        "meta_ephemeris_type": 0,
        "meta_classification_type": "U",
        "meta_norad_cat_id": 28358,
        "meta_element_set_no": 999,
        "meta_rev_at_epoch": 7882,
        "meta_bstar": 0,
        "meta_mean_motion_dot": 1.1e-07,
        "meta_mean_motion_ddot": 0,
        "tle_line1": "1 28358U 04022A   25360.36919837  .00000011  00000+0  00000+0 0  9996",
        "tle_line2": "2 28358   0.0178  41.2908 0001247 258.9062 286.8755  1.00270580 78823"
      },
      "geometry": {
        "type": "Point",
        "coordinates": [
          154.61040831851577,
          0.028676708897183833
        ]
      }
    },
    {
      "type": "Feature",
      "properties": {
        "norad_id": 28626,
        "name": "XM-3 (RHYTHM)",
        "group": "intelsat",
        "lat": 0.17893364349013188,
        "lon": -158.72969987907078,
        "alt_km": 36168.954936329945,
        "timestamp": "2025-12-27T03:58:43.845306+00:00",
        "meta_object_name": "XM-3 (RHYTHM)",
        "meta_object_id": "2005-008A",
        "meta_epoch": "2025-12-26T04:42:51.380064",
        "meta_mean_motion": 0.98950411,
        "meta_eccentricity": 0.0002237,
        "meta_inclination": 0.2074,
        "meta_ra_of_asc_node": 82.2895,
        "meta_arg_of_pericenter": 272.1799,
        "meta_mean_anomaly": 221.5061,
        "meta_ephemeris_type": 0,
        "meta_classification_type": "U",
        "meta_norad_cat_id": 28626,
        "meta_element_set_no": 999,
        "meta_rev_at_epoch": 4088,
        "meta_bstar": 0,
        "meta_mean_motion_dot": 8.6e-07,
        "meta_mean_motion_ddot": 0,
        "tle_line1": "1 28626U 05008A   25360.19642801  .00000086  00000+0  00000+0 0  9996",
        "tle_line2": "2 28626   0.2074  82.2895 0002237 272.1799 221.5061  0.98950411 40888"
      },
      "geometry": {
        "type": "Point",
        "coordinates": [
          -158.72969987907078,
          0.17893364349013188
        ]
      }
    },
    {
      "type": "Feature",
      "properties": {
        "norad_id": 28659,
        "name": "DIRECTV 8",
        "group": "intelsat",
        "lat": -0.00045693262028160457,
        "lon": 36.569710072547,
        "alt_km": 35790.84269065314,
        "timestamp": "2025-12-27T03:58:43.845317+00:00",
        "meta_object_name": "DIRECTV 8",
        "meta_object_id": "2005-019A",
        "meta_epoch": "2025-12-26T09:14:16.477152",
        "meta_mean_motion": 1.00271765,
        "meta_eccentricity": 0.0003134,
        "meta_inclination": 0.0135,
        "meta_ra_of_asc_node": 57.3028,
        "meta_arg_of_pericenter": 228.1398,
        "meta_mean_anomaly": 189.2168,
        "meta_ephemeris_type": 0,
        "meta_classification_type": "U",
        "meta_norad_cat_id": 28659,
        "meta_element_set_no": 999,
        "meta_rev_at_epoch": 7534,
        "meta_bstar": 0,
        "meta_mean_motion_dot": 2.3e-07,
        "meta_mean_motion_ddot": 0,
        "tle_line1": "1 28659U 05019A   25360.38491293  .00000023  00000+0  00000+0 0  9993",
        "tle_line2": "2 28659   0.0135  57.3028 0003134 228.1398 189.2168  1.00271765 75343"
      },
      "geometry": {
        "type": "Point",
        "coordinates": [
          36.569710072547,
          -0.00045693262028160457
        ]
      }
    },
    {
      "type": "Feature",
      "properties": {
        "norad_id": 28702,
        "name": "GALAXY 28 (G-28)",
        "group": "intelsat",
        "lat": -0.27023917250900475,
        "lon": 75.36724129816925,
        "alt_km": 35708.70262437909,
        "timestamp": "2025-12-27T03:58:43.845327+00:00",
        "meta_object_name": "GALAXY 28 (G-28)",
        "meta_object_id": "2005-022A",
        "meta_epoch": "2025-12-26T11:40:12.062208",
        "meta_mean_motion": 1.00599644,
        "meta_eccentricity": 0.0003457,
        "meta_inclination": 2.855,
        "meta_ra_of_asc_node": 81.1219,
        "meta_arg_of_pericenter": 160.9204,
        "meta_mean_anomaly": 307.2288,
        "meta_ephemeris_type": 0,
        "meta_classification_type": "U",
        "meta_norad_cat_id": 28702,
        "meta_element_set_no": 999,
        "meta_rev_at_epoch": 5024,
        "meta_bstar": 0,
        "meta_mean_motion_dot": -2.33e-06,
        "meta_mean_motion_ddot": 0,
        "tle_line1": "1 28702U 05022A   25360.48625072 -.00000233  00000+0  00000+0 0  9995",
        "tle_line2": "2 28702   2.8550  81.1219 0003457 160.9204 307.2288  1.00599644 50243"
      },
      "geometry": {
        "type": "Point",
        "coordinates": [
          75.36724129816925,
          -0.27023917250900475
        ]
      }
    },
    {
      "type": "Feature",
      "properties": {
        "norad_id": 29236,
        "name": "GALAXY 16 (G-16)",
        "group": "intelsat",
        "lat": -0.008485578359714207,
        "lon": 56.58486398595746,
        "alt_km": 35794.7383258249,
        "timestamp": "2025-12-27T03:58:43.845338+00:00",
        "meta_object_name": "GALAXY 16 (G-16)",
        "meta_object_id": "2006-023A",
        "meta_epoch": "2025-12-26T14:16:23.522016",
        "meta_mean_motion": 1.00271426,
        "meta_eccentricity": 0.0002673,
        "meta_inclination": 0.044,
        "meta_ra_of_asc_node": 195.1491,
        "meta_arg_of_pericenter": 82.4387,
        "meta_mean_anomaly": 292.8373,
        "meta_ephemeris_type": 0,
        "meta_classification_type": "U",
        "meta_norad_cat_id": 29236,
        "meta_element_set_no": 999,
        "meta_rev_at_epoch": 7124,
        "meta_bstar": 0,
        "meta_mean_motion_dot": -1.05e-06,
        "meta_mean_motion_ddot": 0,
        "tle_line1": "1 29236U 06023A   25360.59471669 -.00000105  00000+0  00000+0 0  9991",
        "tle_line2": "2 29236   0.0440 195.1491 0002673  82.4387 292.8373  1.00271426 71243"
      },
      "geometry": {
        "type": "Point",
        "coordinates": [
          56.58486398595746,
          -0.008485578359714207
        ]
      }
    },
    {
      "type": "Feature",
      "properties": {
        "norad_id": 29494,
        "name": "DIRECTV 9S",
        "group": "intelsat",
        "lat": -0.9347696812302939,
        "lon": 54.41324781236978,
        "alt_km": 35795.37386372156,
        "timestamp": "2025-12-27T03:58:43.845348+00:00",
        "meta_object_name": "DIRECTV 9S",
        "meta_object_id": "2006-043A",
        "meta_epoch": "2025-12-26T11:22:08.461920",
        "meta_mean_motion": 1.00271472,
        "meta_eccentricity": 0.000309,
        "meta_inclination": 1.9736,
        "meta_ra_of_asc_node": 83.0647,
        "meta_arg_of_pericenter": 197.4585,
        "meta_mean_anomaly": 244.0274,
        "meta_ephemeris_type": 0,
        "meta_classification_type": "U",
        "meta_norad_cat_id": 29494,
        "meta_element_set_no": 999,
        "meta_rev_at_epoch": 4965,
        "meta_bstar": 0,
        "meta_mean_motion_dot": -9.2e-07,
        "meta_mean_motion_ddot": 0,
        "tle_line1": "1 29494U 06043A   25360.47370905 -.00000092  00000+0  00000+0 0  9992",
        "tle_line2": "2 29494   1.9736  83.0647 0003090 197.4585 244.0274  1.00271472 49656"
      },
      "geometry": {
        "type": "Point",
        "coordinates": [
          54.41324781236978,
          -0.9347696812302939
        ]
      }
    }
  ]
}